{
    "links": {
        "self": "http://www.neowsapp.com/rest/v1/neo/3869333?api_key=iIulBulltgU6a56xZRHN4H3l9WmuAYTsLGpBGhQ2"
    },
    "id": "3869333",
    "neo_reference_id": "3869333",
    "name": "(2019 SZ5)",
    "designation": "2019 SZ5",
    "nasa_jpl_url": "http://ssd.jpl.nasa.gov/sbdb.cgi?sstr=3869333",
    "absolute_magnitude_h": 25.1,
    "estimated_diameter": {
        "kilometers": {
            "estimated_diameter_min": 0.0253837029,
            "estimated_diameter_max": 0.0567596853
        },
        "meters": {
            "estimated_diameter_min": 25.3837029364,
            "estimated_diameter_max": 56.7596852866
        },
        "miles": {
            "estimated_diameter_min": 0.0157726969,
            "estimated_diameter_max": 0.0352688224
        },
        "feet": {
            "estimated_diameter_min": 83.279867942,
            "estimated_diameter_max": 186.2194458756
        }
    },
    "is_potentially_hazardous_asteroid": false,
    "close_approach_data": [
        {
            "close_approach_date": "2012-12-28",
            "close_approach_date_full": "2012-Dec-28 21:28",
            "epoch_date_close_approach": 1356730080000,
            "relative_velocity": {
                "kilometers_per_second": "11.3621451336",
                "kilometers_per_hour": "40903.7224808473",
                "miles_per_hour": "25415.9824492798"
            },
            "miss_distance": {
                "astronomical": "0.0571925861",
                "lunar": "22.2479159929",
                "kilometers": "8555889.060351607",
                "miles": "5316382.9381498966"
            },
            "orbiting_body": "Mars"
        },
        {
            "close_approach_date": "2019-10-21",
            "close_approach_date_full": "2019-Oct-21 10:53",
            "epoch_date_close_approach": 1571655180000,
            "relative_velocity": {
                "kilometers_per_second": "4.8851524179",
                "kilometers_per_hour": "17586.5487045767",
                "miles_per_hour": "10927.5974436854"
            },
            "miss_distance": {
                "astronomical": "0.1152515204",
                "lunar": "44.8328414356",
                "kilometers": "17241381.966101548",
                "miles": "10713297.9715074424"
            },
            "orbiting_body": "Earth"
        }
    ],
    "orbital_data": {
        "orbit_id": "3",
        "orbit_determination_date": "2019-10-26 08:19:19",
        "first_observation_date": "2019-09-25",
        "last_observation_date": "2019-10-22",
        "data_arc_in_days": 27,
        "observations_used": 18,
        "orbit_uncertainty": "7",
        "minimum_orbit_intersection": ".115777",
        "jupiter_tisserand_invariant": "3.473",
        "epoch_osculation": "2459000.5",
        "eccentricity": ".5036964564715758",
        "semi_major_axis": "2.218216790047249",
        "inclination": "2.513380702125708",
        "ascending_node_longitude": "117.3486513360577",
        "orbital_period": "1206.714160747636",
        "perihelion_distance": "1.100908853214696",
        "perihelion_argument": "272.5426143641603",
        "aphelion_distance": "3.335524726879802",
        "perihelion_time": "2458780.210471578112",
        "mean_anomaly": "65.71915107281541",
        "mean_motion": ".2983307992150827",
        "equinox": "J2000",
        "orbit_class": {
            "orbit_class_type": "AMO",
            "orbit_class_description": "Near-Earth asteroid orbits similar to that of 1221 Amor",
            "orbit_class_range": "1.017 AU < q (perihelion) < 1.3 AU"
        }
    },
    "is_sentry_object": false
}